NORAD_CAT_ID,OBJECT_NAME,OBJECT_TYPE,EPOCH,MEAN_MOTION,ECCENTRICITY,INCLINATION,RA_OF_ASC_NODE,ARG_OF_PERICENTER,MEAN_ANOMALY,BSTAR,MEAN_MOTION_DOT,MEAN_MOTION_DDOT,TLE_LINE0,TLE_LINE1,TLE_LINE2,SEMIMAJOR_AXIS,PERIOD,APOGEE,PERIGEE,DECAYED
51757.0,STARLINK-3459,PAYLOAD,2023-02-21 14:57:10,15.0884595,0.000123,53.2134,261.3906,83.1317,276.9815,-5.9877e-05,-1.241e-05,0.0,0 STARLINK-3459,1 51757U 22016AV  23052.62304011 -.00001241  00000-0 -59877-4 0  9995,2 51757  53.2134 261.3906 0001230  83.1317 276.9815 15.08845950 55824,6917.862,95.437,540.578,538.876,0.0
51757.0,STARLINK-3459,PAYLOAD,2023-02-21 21:18:43,15.08847973,0.0001082,53.2139,260.2011,94.9307,265.1808,0.00012167,1.65e-05,0.0,0 STARLINK-3459,1 51757U 22016AV  23052.88799812  .00001650  00000-0  12167-3 0  9992,2 51757  53.2139 260.2011 0001082  94.9307 265.1808 15.08847973 55861,6917.856,95.437,540.47,538.973,0.0
51757.0,STARLINK-3459,PAYLOAD,2023-02-22 13:12:35,15.08835206,0.000107,53.2137,257.227,84.6928,275.4186,-3.1987e-05,-7.97e-06,0.0,0 STARLINK-3459,1 51757U 22016AV  23053.55040526 -.00000797  00000-0 -31987-4 0  9993,2 51757  53.2137 257.2270 0001070  84.6928 275.4186 15.08835206 55964,6917.895,95.438,540.5,539.02,0.0
51757.0,STARLINK-3459,PAYLOAD,2023-02-22 19:34:07,15.08833215,0.0001117,53.2135,256.037,81.5229,278.589,-4.9002e-05,-1.067e-05,0.0,0 STARLINK-3459,1 51757U 22016AV  23053.81536740 -.00001067  00000-0 -49002-4 0  9998,2 51757  53.2135 256.0370 0001117  81.5229 278.5890 15.08833215 57115,6917.901,95.438,540.539,538.993,0.0
51757.0,STARLINK-3459,PAYLOAD,2023-02-23 13:03:21,15.08844768,0.0001209,53.2152,252.7656,92.7555,267.3576,2.3936e-05,9.3e-07,0.0,0 STARLINK-3459,1 51757U 22016AV  23054.54400383  .00000093  00000-0  23936-4 0  9996,2 51757  53.2152 252.7656 0001209  92.7555 267.3576 15.08844768 57226,6917.866,95.437,540.567,538.894,0.0
51757.0,STARLINK-3459,PAYLOAD,2023-02-23 19:24:54,15.08848741,0.0001043,53.2143,251.5758,85.6687,274.4424,7.686e-05,9.36e-06,0.0,0 STARLINK-3459,1 51757U 22016AV  23054.80895895  .00000936  00000-0  76860-4 0  9991,2 51757  53.2143 251.5758 0001043  85.6687 274.4424 15.08848741 56156,6917.854,95.437,540.44,538.997,0.0
51757.0,STARLINK-3459,PAYLOAD,2023-02-23 22:35:40,15.08852119,0.0001067,53.2151,250.982,82.44,277.6714,0.00011588,1.557e-05,0.0,0 STARLINK-3459,1 51757U 22016AV  23054.94143686  .00001557  00000-0  11588-3 0  9995,2 51757  53.2151 250.9820 0001067  82.4400 277.6714 15.08852119 57288,6917.843,95.437,540.446,538.97,0.0
51757.0,STARLINK-3459,PAYLOAD,2023-02-24 12:54:09,15.0883851,0.0001044,53.2143,248.3058,73.7961,286.3146,0.00012695,1.733e-05,0.0,0 STARLINK-3459,1 51757U 22016AV  23055.53760664  .00001733  00000-0  12695-3 0  9998,2 51757  53.2143 248.3058 0001044  73.7961 286.3146 15.08838510 56265,6917.885,95.438,540.472,539.028,0.0
51757.0,STARLINK-3459,PAYLOAD,2023-02-24 16:04:55,15.08839564,0.0001142,53.2143,247.711,71.005,289.1066,0.0001399,1.939e-05,0.0,0 STARLINK-3459,1 51757U 22016AV  23055.67008672  .00001939  00000-0  13990-3 0  9994,2 51757  53.2143 247.7110 0001142  71.0050 289.1066 15.08839564 57393,6917.882,95.438,540.537,538.957,0.0
51757.0,STARLINK-3459,PAYLOAD,2023-02-24 19:15:41,15.08841084,0.0001028,53.2143,247.1161,74.9687,285.1419,0.00015232,2.137e-05,0.0,0 STARLINK-3459,1 51757U 22016AV  23055.80256588  .00002137  00000-0  15232-3 0  9992,2 51757  53.2143 247.1161 0001028  74.9687 285.1419 15.08841084 56302,6917.877,95.437,540.453,539.031,0.0
51757.0,STARLINK-3459,PAYLOAD,2023-02-25 12:44:56,15.08839899,8.3e-05,53.2152,243.8448,69.39,290.7181,-1.1483e-05,-4.7e-06,0.0,0 STARLINK-3459,1 51757U 22016AV  23056.53120652 -.00000470  00000-0 -11483-4 0  9990,2 51757  53.2152 243.8448 0000830  69.3900 290.7181 15.08839899 56410,6917.881,95.438,540.32,539.172,0.0
51757.0,STARLINK-3459,PAYLOAD,2023-02-25 19:06:28,15.08843507,0.0001058,53.2145,242.6548,78.0263,282.0847,4.6952e-05,4.6e-06,0.0,0 STARLINK-3459,1 51757U 22016AV  23056.79616497  .00000460  00000-0  46952-4 0  9991,2 51757  53.2145 242.6548 0001058  78.0263 282.0847 15.08843507 57563,6917.87,95.437,540.467,539.003,0.0
51757.0,STARLINK-3459,PAYLOAD,2023-02-25 22:17:14,15.08845433,0.0001029,53.2152,242.0607,76.9,283.2107,8.4906e-05,1.064e-05,0.0,0 STARLINK-3459,1 51757U 22016AV  23056.92864398  .00001064  00000-0  84906-4 0  9993,2 51757  53.2152 242.0607 0001029  76.9000 283.2107 15.08845433 56476,6917.864,95.437,540.441,539.017,0.0
51757.0,STARLINK-3459,PAYLOAD,2023-02-26 12:35:43,15.08845049,0.0001047,53.2149,239.3837,80.4715,279.6395,0.00017016,2.422e-05,0.0,0 STARLINK-3459,1 51757U 22016AV  23057.52480438  .00002422  00000-0  17016-3 0  9995,2 51757  53.2149 239.3837 0001047  80.4715 279.6395 15.08845049 56560,6917.865,95.437,540.454,539.006,0.0
51757.0,STARLINK-3459,PAYLOAD,2023-02-26 20:32:38,15.08854001,0.0001037,53.2151,237.8971,78.7906,281.3203,0.00027657,4.118e-05,0.0,0 STARLINK-3459,1 51757U 22016AV  23057.85599878  .00004118  00000-0  27657-3 0  9996,2 51757  53.2151 237.8971 0001037  78.7906 281.3203 15.08854001 56618,6917.838,95.437,540.42,538.985,0.0
51757.0,STARLINK-3459,PAYLOAD,2023-02-27 04:29:34,15.08843717,0.0001262,53.2156,236.4093,82.2792,277.8344,0.00013718,1.896e-05,0.0,0 STARLINK-3459,1 51757U 22016AV  23058.18720434  .00001896  00000-0  13718-3 0  9990,2 51757  53.2156 236.4093 0001262  82.2792 277.8344 15.08843717 57772,6917.869,95.437,540.607,538.861,0.0
51757.0,STARLINK-3459,PAYLOAD,2023-02-27 10:51:07,15.0884362,0.0001182,53.2152,235.2213,81.1581,278.9545,0.00016401,2.324e-05,0.0,0 STARLINK-3459,1 51757U 22016AV  23058.45216490  .00002324  00000-0  16401-3 0  9991,2 51757  53.2152 235.2213 0001182  81.1581 278.9545 15.08843620 56704,6917.869,95.437,540.552,538.917,0.0
51757.0,STARLINK-3459,PAYLOAD,2023-02-27 18:48:01,15.08866007,9.97e-05,53.2154,233.735,87.5889,272.5218,0.00054837,8.456e-05,0.0,0 STARLINK-3459,1 51757U 22016AV  23058.78335496  .00008456  00000-0  54837-3 0  9992,2 51757  53.2154 233.7350 0000997  87.5889 272.5218 15.08866007 57864,6917.801,95.436,540.356,538.976,0.0
51757.0,STARLINK-3459,PAYLOAD,2023-02-28 04:20:21,15.08846789,9.63e-05,53.2153,231.9511,86.3952,273.715,0.0001709,2.434e-05,0.0,0 STARLINK-3459,1 51757U 22016AV  23059.18079905  .00002434  00000-0  17090-3 0  9997,2 51757  53.2153 231.9511 0000963  86.3952 273.7150 15.08846789 57923,6917.86,95.437,540.391,539.058,0.0
51757.0,STARLINK-3459,PAYLOAD,2023-02-28 12:17:17,15.08830338,0.0001097,53.2148,230.4632,68.203,291.9079,-0.00021436,-3.697e-05,0.0,0 STARLINK-3459,1 51757U 22016AV  23059.51200407 -.00003697  00000-0 -21436-3 0  9990,2 51757  53.2148 230.4632 0001097  68.2030 291.9079 15.08830338 56867,6917.91,95.438,540.534,539.016,0.0
51757.0,STARLINK-3459,PAYLOAD,2023-02-28 15:28:03,15.08833843,0.0001508,53.2152,229.8702,71.3309,288.7846,-0.00011371,-2.097e-05,0.0,0 STARLINK-3459,1 51757U 22016AV  23059.64448651 -.00002097  00000-0 -11371-3 0  9999,2 51757  53.2152 229.8702 0001508  71.3309 288.7846 15.08833843 57998,6917.899,95.438,540.807,538.721,0.0
51757.0,STARLINK-3459,PAYLOAD,2023-02-28 18:38:49,15.08838636,0.0001177,53.2155,229.274,74.7927,285.3196,-3.8472e-05,-9e-06,0.0,0 STARLINK-3459,1 51757U 22016AV  23059.77696467 -.00000900  00000-0 -38472-4 0  9996,2 51757  53.2155 229.2740 0001177  74.7927 285.3196 15.08838636 56908,6917.885,95.438,540.564,538.935,0.0
51757.0,STARLINK-3459,PAYLOAD,2023-03-01 18:29:37,15.08830974,0.0001049,53.2152,224.8126,81.1248,278.9863,-3.1721e-05,-7.92e-06,0.0,0 STARLINK-3459,1 51757U 22016AV  23060.77057320 -.00000792  00000-0 -31721-4 0  9996,2 51757  53.2152 224.8126 0001049  81.1248 278.9863 15.08830974 58166,6917.908,95.438,540.499,539.047,0.0
51757.0,STARLINK-3459,PAYLOAD,2023-03-02 19:55:47,15.08845799,0.0001208,53.2143,220.0562,59.5485,300.5626,0.00025337,3.747e-05,0.0,0 STARLINK-3459,1 51757U 22016AV  23061.83041125  .00003747  00000-0  25337-3 0  9996,2 51757  53.2143 220.0562 0001208  59.5485 300.5626 15.08845799 57212,6917.863,95.437,540.563,538.892,0.0
51757.0,STARLINK-3459,PAYLOAD,2023-03-03 10:14:15,15.08845332,0.0001467,53.2141,217.3805,75.1246,284.9909,0.00024784,3.659e-05,0.0,0 STARLINK-3459,1 51757U 22016AV  23062.42657254  .00003659  00000-0  24784-3 0  9995,2 51757  53.2141 217.3805 0001467  75.1246 284.9909 15.08845332 58410,6917.864,95.437,540.744,538.714,0.0
51757.0,STARLINK-3459,PAYLOAD,2023-03-03 19:46:33,15.08861845,0.000136,53.2131,215.5938,89.5601,270.5547,0.00047474,7.28e-05,0.0,0 STARLINK-3459,1 51757U 22016AV  23062.82400393  .00007280  00000-0  47474-3 0  9994,2 51757  53.2131 215.5938 0001360  89.5601 270.5547 15.08861845 58474,6917.814,95.436,540.619,538.738,0.0
51757.0,STARLINK-3459,PAYLOAD,2023-03-04 03:43:29,15.08847973,0.0001059,53.2135,214.1088,88.7072,271.4041,0.00014502,2.021e-05,0.0,0 STARLINK-3459,1 51757U 22016AV  23063.15520671  .00002021  00000-0  14502-3 0  9997,2 51757  53.2135 214.1088 0001059  88.7072 271.4041 15.08847973 58528,6917.856,95.437,540.454,538.988,0.0
51757.0,STARLINK-3459,PAYLOAD,2023-03-04 13:15:48,15.08845547,0.0001666,53.2128,212.3231,99.2689,260.8491,6.8659e-05,8.05e-06,0.0,0 STARLINK-3459,1 51757U 22016AV  23063.55264831  .00000805  00000-0  68659-4 0  9995,2 51757  53.2128 212.3231 0001666  99.2689 260.8491 15.08845547 57474,6917.863,95.437,540.881,538.576,0.0
51757.0,STARLINK-3459,PAYLOAD,2023-03-04 21:12:44,15.08858468,0.0001399,53.2157,210.8374,97.4875,262.6276,0.00056403,8.704e-05,0.0,0 STARLINK-3459,1 51757U 22016AV  23063.88384382  .00008704  00000-0  56403-3 0  9994,2 51757  53.2157 210.8374 0001399  97.4875 262.6276 15.08858468 57520,6917.824,95.436,540.657,538.721,0.0
51757.0,STARLINK-3459,PAYLOAD,2023-03-06 01:49:41,15.08839161,0.0001267,53.2165,205.4853,96.9835,263.1301,0.00044936,6.871e-05,0.0,0 STARLINK-3459,1 51757U 22016AV  23065.07617254  .00006871  00000-0  44936-3 0  9995,2 51757  53.2165 205.4853 0001267  96.9835 263.1301 15.08839161 58812,6917.883,95.438,540.624,538.871,0.0
